[{"OBJECT_NAME":"IRIDIUM 103","OBJECT_ID":"2017-003B","EPOCH":"2026-03-09T15:54:14.180832","MEAN_MOTION":14.34218399,"ECCENTRICITY":0.00020548,"INCLINATION":86.3981,"RA_OF_ASC_NODE":130.0732,"ARG_OF_PERICENTER":88.2192,"MEAN_ANOMALY":271.9239,"EPHEMERIS_TYPE":0,"CLASSIFICATION_TYPE":"U","NORAD_CAT_ID":41918,"ELEMENT_SET_NO":999,"REV_AT_EPOCH":47896,"BSTAR":3.8019926e-5,"MEAN_MOTION_DOT":1.26e-6,"MEAN_MOTION_DDOT":0},{"OBJECT_NAME":"COSMOS 2251 DEB","OBJECT_ID":"1993-036AUZ","EPOCH":"2026-03-07T15:23:24.510624","MEAN_MOTION":14.34204014,"ECCENTRICITY":0.0023108,"INCLINATION":74.0332,"RA_OF_ASC_NODE":156.6345,"ARG_OF_PERICENTER":222.1145,"MEAN_ANOMALY":137.8232,"EPHEMERIS_TYPE":0,"CLASSIFICATION_TYPE":"U","NORAD_CAT_ID":35959,"ELEMENT_SET_NO":999,"REV_AT_EPOCH":86145,"BSTAR":0.00015437,"MEAN_MOTION_DOT":4.08e-6,"MEAN_MOTION_DDOT":0}]
